OBJECT_NAME,OBJECT_ID,EPOCH,MEAN_MOTION,ECCENTRICITY,INCLINATION,RA_OF_ASC_NODE,ARG_OF_PERICENTER,MEAN_ANOMALY,EPHEMERIS_TYPE,CLASSIFICATION_TYPE,NORAD_CAT_ID,ELEMENT_SET_NO,REV_AT_EPOCH,BSTAR,MEAN_MOTION_DOT,MEAN_MOTION_DDOT
FENGYUN 3D,2017-072A,2026-07-04T15:00:07.464096,14.19743009,.00020249,99.0138,160.3632,33.6533,326.4770,0,U,43010,999,44746,.10964412E-3,.186E-5,0
NOAA 20 (JPSS-1),2017-073A,2026-07-04T14:56:59.483616,14.19515144,.00009568,98.7772,124.9308,132.9993,227.1264,0,U,43013,999,44694,.67612638E-4,.98E-6,0
GOES 17,2018-022A,2026-07-04T13:27:45.381024,1.00271170,.00007036,0.9785,85.4405,51.4573,258.1135,0,U,43226,999,3059,0,-.17E-5,0
SENTINEL-3B,2018-039A,2026-07-04T10:35:58.954848,14.26739817,.00008916,98.6242,252.7259,116.8484,243.2787,0,U,43437,999,42658,.7502834E-4,.138E-5,0
FENGYUN 2H,2018-050A,2026-07-04T14:15:52.303968,1.00269200,.00018374,3.0736,78.8758,121.8191,15.1537,0,U,43491,999,2961,0,-.117E-5,0
METOP-C,2018-087A,2026-07-04T14:16:03.288000,14.21517124,.00021813,98.6635,244.8793,107.2589,252.8828,0,U,43689,999,39730,.8566137E-4,.144E-5,0
GEO-KOMPSAT-2A,2018-100A,2026-07-02T19:57:00.763776,1.00268738,.00022559,0.0451,169.6912,284.8102,253.8622,0,U,43823,999,2778,0,-.333E-5,0
METEOR-M2 2,2019-038A,2026-07-04T14:17:26.556864,14.24370321,.00013135,98.9153,173.1384,22.1302,337.9932,0,U,44387,999,36377,.60392957E-4,.94E-6,0
ARKTIKA-M 1,2021-016A,2026-06-29T22:50:46.732128,2.00617895,.72928178,63.2520,55.7907,269.9910,14.5481,0,U,47719,999,3904,0,-.281E-5,0
FENGYUN 3E,2021-062A,2026-07-04T14:34:06.526272,14.19905311,.00026523,98.7493,188.8207,56.7761,303.3669,0,U,49008,999,25905,-.56017044E-4,-.163E-5,0
GOES 18,2022-021A,2026-07-04T12:15:38.875104,1.00270988,.0000592,0.0415,221.7763,303.1764,164.4734,0,U,51850,999,676,0,.109E-5,0
NOAA 21 (JPSS-2),2022-150A,2026-07-04T14:02:14.855424,14.19539851,.00025324,98.7060,124.0818,122.9343,237.2077,0,U,54234,999,18901,.69455116E-4,.103E-5,0
METEOSAT-12 (MTG-I1),2022-170C,2026-07-04T08:45:12.165696,1.00276407,.00035381,0.7569,25.5656,75.5013,312.3958,0,U,54743,999,1315,0,.6E-7,0
TIANMU-1 03,2023-039A,2026-07-04T13:45:50.131296,15.47796287,.00034535,97.5243,0.2292,53.8315,306.3254,0,U,55973,999,18352,.47631952E-3,.2467E-3,0
TIANMU-1 04,2023-039B,2026-07-04T14:53:56.497056,15.48417764,.00039064,97.5179,359.4337,48.7408,311.4178,0,U,55974,999,18354,.51341621E-3,.2719E-3,0
TIANMU-1 05,2023-039C,2026-07-04T14:52:27.302016,15.47726557,.00036495,97.5224,359.8859,73.2673,286.8977,0,U,55975,999,18351,.50857778E-3,.2629E-3,0
TIANMU-1 06,2023-039D,2026-07-04T15:00:24.193728,15.48314004,.00038653,97.5230,0.5451,67.8122,292.3538,0,U,55976,999,18354,.46844827E-3,.24703E-3,0
FENGYUN 3G,2023-055A,2026-07-04T14:34:58.672992,15.53424209,.00072967,49.9917,256.2128,9.3423,350.7679,0,U,56232,999,18271,.63373445E-3,.40726E-3,0
METEOR-M2 3,2023-091A,2026-07-04T14:15:02.129760,14.24048368,.00050573,98.6079,240.2152,114.0893,246.0816,0,U,57166,999,15699,.27562016E-4,.2E-6,0
TIANMU-1 07,2023-101A,2026-07-04T15:05:38.395104,15.30019726,.00042446,97.2578,235.8978,86.1787,273.9940,0,U,57399,999,16431,.33877682E-3,.9775E-4,0
TIANMU-1 08,2023-101B,2026-07-04T15:51:42.750144,15.30024402,.00053897,97.2566,235.6972,73.0377,287.1455,0,U,57400,999,16431,.32322976E-3,.9326E-4,0
TIANMU-1 09,2023-101C,2026-07-04T15:27:16.605216,15.30061999,.00048355,97.2525,235.0874,88.1362,272.0433,0,U,57401,999,16431,.34136769E-3,.9864E-4,0
TIANMU-1 10,2023-101D,2026-07-04T14:41:08.617920,15.30034456,.0006288,97.2604,236.1244,81.9610,278.2344,0,U,57402,999,16430,.35419088E-3,.10232E-3,0
FENGYUN 3F,2023-111A,2026-07-04T14:10:21.212256,14.19942185,.00014677,98.6829,255.2745,81.6137,278.5206,0,U,57490,999,15133,.55845338E-4,.75E-6,0
ARKTIKA-M 2,2023-198A,2026-06-29T17:20:14.637696,2.00610643,.69058771,63.2199,152.9641,267.3845,18.7575,0,U,58584,999,1857,0,.148E-5,0
TIANMU-1 11,2023-205A,2026-07-04T14:45:03.963744,15.27181337,.0007034,97.3441,206.8991,309.6312,50.4306,0,U,58645,999,14018,.32535461E-3,.8604E-4,0
TIANMU-1 12,2023-205B,2026-07-02T10:09:37.320768,15.27051163,.0005309,97.3426,204.4940,296.9950,63.0746,0,U,58646,999,13983,.25584E-3,.672E-4,0
TIANMU-1 13,2023-205C,2026-07-04T14:51:42.303168,15.27002730,.00050075,97.3457,206.9311,260.1661,99.9013,0,U,58647,999,14016,.32973426E-3,.8671E-4,0
TIANMU-1 14,2023-205D,2026-07-04T14:29:40.104960,15.27049361,.00057677,97.3393,206.0842,267.7253,92.3326,0,U,58648,999,14016,.38186842E-3,.1007E-3,0
TIANMU-1 19,2023-208A,2026-07-04T14:22:48.210240,15.31848041,.00037215,97.4521,301.9920,242.9098,117.1764,0,U,58660,999,13999,.44130752E-3,.13503E-3,0
