FENGYUN 3D              
1 43010U 17072A   26185.62508639  .00000186  00000+0  10964-3 0  9993
2 43010  99.0138 160.3632 0002024  33.6533 326.4770 14.19743009447464
NOAA 20 (JPSS-1)        
1 43013U 17073A   26185.62291069  .00000098  00000+0  67613-4 0  9999
2 43013  98.7772 124.9308 0000956 132.9993 227.1264 14.19515144446942
GOES 17                 
1 43226U 18022A   26185.56094191 -.00000170  00000+0  00000+0 0  9994
2 43226   0.9785  85.4405 0000703  51.4573 258.1135  1.00271170 30590
SENTINEL-3B             
1 43437U 18039A   26185.44165457  .00000138  00000+0  75028-4 0  9997
2 43437  98.6242 252.7259 0000891 116.8484 243.2787 14.26739817426582
FENGYUN 2H              
1 43491U 18050A   26185.59435537 -.00000117  00000+0  00000+0 0  9996
2 43491   3.0736  78.8758 0001837 121.8191  15.1537  1.00269200 29617
METOP-C                 
1 43689U 18087A   26185.59448250  .00000144  00000+0  85661-4 0  9991
2 43689  98.6635 244.8793 0002181 107.2589 252.8828 14.21517124397305
GEO-KOMPSAT-2A          
1 43823U 18100A   26183.83125884 -.00000333  00000+0  00000+0 0  9997
2 43823   0.0451 169.6912 0002255 284.8102 253.8622  1.00268738 27782
METEOR-M2 2             
1 44387U 19038A   26185.59544626  .00000094  00000+0  60393-4 0  9997
2 44387  98.9153 173.1384 0001313  22.1302 337.9932 14.24370321363777
ARKTIKA-M 1             
1 47719U 21016A   26180.95192977 -.00000281  00000+0  00000+0 0  9994
2 47719  63.2520  55.7907 7292817 269.9910  14.5481  2.00617895 39040
FENGYUN 3E              
1 49008U 21062A   26185.60701998 -.00000163  00000+0 -56017-4 0  9998
2 49008  98.7493 188.8207 0002652  56.7761 303.3669 14.19905311259059
GOES 18                 
1 51850U 22021A   26185.51086661  .00000109  00000+0  00000+0 0  9999
2 51850   0.0415 221.7763 0000592 303.1764 164.4734  1.00270988  6762
NOAA 21 (JPSS-2)        
1 54234U 22150A   26185.58489416  .00000103  00000+0  69455-4 0  9991
2 54234  98.7060 124.0818 0002532 122.9343 237.2077 14.19539851189013
METEOSAT-12 (MTG-I1)    
1 54743U 22170C   26185.36472414  .00000006  00000+0  00000+0 0  9992
2 54743   0.7569  25.5656 0003538  75.5013 312.3958  1.00276407 13159
TIANMU-1 03             
1 55973U 23039A   26185.57349689  .00024670  00000+0  47632-3 0  9992
2 55973  97.5243   0.2292 0003453  53.8315 306.3254 15.47796287183524
TIANMU-1 04             
1 55974U 23039B   26185.62079279  .00027190  00000+0  51342-3 0  9997
2 55974  97.5179 359.4337 0003906  48.7408 311.4178 15.48417764183546
TIANMU-1 05             
1 55975U 23039C   26185.61976044  .00026290  00000+0  50858-3 0  9994
2 55975  97.5224 359.8859 0003649  73.2673 286.8977 15.47726557183513
TIANMU-1 06             
1 55976U 23039D   26185.62528002  .00024703  00000+0  46845-3 0  9991
2 55976  97.5230   0.5451 0003865  67.8122 292.3538 15.48314004183546
FENGYUN 3G              
1 56232U 23055A   26185.60762353  .00040726  00000+0  63373-3 0  9990
2 56232  49.9917 256.2128 0007296   9.3423 350.7679 15.53424209182711
METEOR-M2 3             
1 57166U 23091A   26185.59377465  .00000020  00000+0  27562-4 0  9995
2 57166  98.6079 240.2152 0005057 114.0893 246.0816 14.24048368156992
TIANMU-1 07             
1 57399U 23101A   26185.62891661  .00009775  00000+0  33878-3 0  9990
2 57399  97.2578 235.8978 0004244  86.1787 273.9940 15.30019726164319
TIANMU-1 08             
1 57400U 23101B   26185.66091146  .00009326  00000+0  32323-3 0  9993
2 57400  97.2566 235.6972 0005389  73.0377 287.1455 15.30024402164317
TIANMU-1 09             
1 57401U 23101C   26185.64394219  .00009864  00000+0  34137-3 0  9991
2 57401  97.2525 235.0874 0004835  88.1362 272.0433 15.30061999164315
TIANMU-1 10             
1 57402U 23101D   26185.61190530  .00010232  00000+0  35419-3 0  9994
2 57402  97.2604 236.1244 0006288  81.9610 278.2344 15.30034456164304
FENGYUN 3F              
1 57490U 23111A   26185.59052329  .00000075  00000+0  55845-4 0  9992
2 57490  98.6829 255.2745 0001467  81.6137 278.5206 14.19942185151330
ARKTIKA-M 2             
1 58584U 23198A   26180.72239164  .00000148  00000+0  00000+0 0  9995
2 58584  63.2199 152.9641 6905877 267.3845  18.7575  2.00610643 18573
TIANMU-1 11             
1 58645U 23205A   26185.61462921  .00008604  00000+0  32535-3 0  9991
2 58645  97.3441 206.8991 0007034 309.6312  50.4306 15.27181337140181
TIANMU-1 12             
1 58646U 23205B   26183.42334862  .00006720  00000+0  25584-3 0  9994
2 58646  97.3426 204.4940 0005309 296.9950  63.0746 15.27051163139833
TIANMU-1 13             
1 58647U 23205C   26185.61923962  .00008671  00000+0  32973-3 0  9990
2 58647  97.3457 206.9311 0005007 260.1661  99.9013 15.27002730140163
TIANMU-1 14             
1 58648U 23205D   26185.60393640  .00010070  00000+0  38187-3 0  9993
2 58648  97.3393 206.0842 0005767 267.7253  92.3326 15.27049361140161
TIANMU-1 19             
1 58660U 23208A   26185.59916910  .00013503  00000+0  44131-3 0  9999
2 58660  97.4521 301.9920 0003721 242.9098 117.1764 15.31848041139999
